OBJECT_NAME,OBJECT_ID,EPOCH,MEAN_MOTION,ECCENTRICITY,INCLINATION,RA_OF_ASC_NODE,ARG_OF_PERICENTER,MEAN_ANOMALY,EPHEMERIS_TYPE,CLASSIFICATION_TYPE,NORAD_CAT_ID,ELEMENT_SET_NO,REV_AT_EPOCH,BSTAR,MEAN_MOTION_DOT,MEAN_MOTION_DDOT
STARLINK-31249,2024-017N,2026-03-20T21:54:10.278144,15.30192918,.00011766,53.1621,152.2474,90.5413,269.5723,0,U,58838,999,12177,.15976419E-4,.114E-5,0
STARLINK-31250,2024-017P,2026-03-20T21:07:11.390880,15.30191198,.00010699,53.1604,142.1019,96.2557,263.8566,0,U,58839,999,12186,.53472814E-4,.1225E-4,0
STARLINK-31248,2024-017Q,2026-03-20T22:54:04.113792,15.30192057,.00018295,53.1618,164.5577,97.5869,262.5340,0,U,58840,999,12171,-.6565526E-5,-.554E-5,0
STARLINK-31236,2024-017R,2026-03-20T22:03:17.222112,15.30197246,.00012057,53.1618,152.2891,90.2569,269.8570,0,U,58841,999,12177,.54912742E-4,.1267E-4,0
STARLINK-31228,2024-017S,2026-03-20T21:58:43.646880,15.30196907,.0001268,53.1622,152.2693,89.5118,270.6028,0,U,58842,999,12177,.32998841E-4,.618E-5,0
STARLINK-31280,2024-017T,2026-03-20T22:07:49.878912,15.30215754,.00009134,53.1603,152.3088,92.7111,267.3995,0,U,58843,999,12177,-.12098011E-3,-.3942E-4,0
STARLINK-31269,2024-017U,2026-03-21T03:35:07.783296,15.30196790,.00011446,53.1595,241.2157,94.9436,265.1696,0,U,58844,999,12052,.10278499E-4,-.55E-6,0
STARLINK-31264,2024-017V,2026-03-20T16:57:52.728192,15.30179799,.00005101,53.1581,242.7264,79.5949,280.5109,0,U,58845,999,12046,-.35792791E-4,-.1418E-4,0
STARLINK-31273,2024-017W,2026-03-20T22:12:23.825664,15.30207268,.00015954,53.1608,152.3273,86.5357,273.5826,0,U,58846,999,12177,.14751376E-3,.4013E-4,0
STARLINK-31262,2024-017X,2026-03-21T04:06:53.001792,15.30192255,.00015083,53.1595,240.6482,90.0921,270.0253,0,U,58847,999,12053,.19644777E-3,.5462E-4,0
AAC-HSI-SAT3,2023-174DH,2026-03-21T04:41:38.508576,15.15300369,.00094906,97.3505,142.4843,320.8168,39.2377,0,U,58848,999,13057,.12185453E-3,.2232E-4,0
2024-018A,2024-018A,2026-03-21T05:39:02.396160,14.39054980,.04332578,58.6873,177.9409,2.9303,357.4109,0,U,58849,999,11251,.16121127E-3,.1287E-4,0
2024-018B,2024-018B,2026-03-21T06:39:35.509248,14.43126068,.04175542,58.6941,167.8487,5.5256,355.0170,0,U,58850,999,11270,.29611103E-3,.269E-4,0
2024-018C,2024-018C,2026-03-21T06:57:45.326016,14.40542774,.0426465,58.6839,172.0318,5.1473,355.3731,0,U,58851,999,11262,.20577033E-3,.173E-4,0
STARLINK-31238,2024-019A,2026-03-20T23:49:51.209184,15.27586856,.00011244,42.9995,184.8642,283.5571,76.5156,0,U,58853,999,12081,-.43623568E-4,-.1462E-4,0
STARLINK-31158,2024-019B,2026-03-20T23:59:05.770176,15.27583116,.00010725,43.0028,184.9145,267.3338,92.7391,0,U,58854,999,12081,.27587307E-4,.497E-5,0
STARLINK-31237,2024-019C,2026-03-20T23:42:26.956800,15.27584871,.00009244,43.0002,184.8490,269.0412,91.0334,0,U,58855,999,12081,-.4454463E-5,-.385E-5,0
STARLINK-31244,2024-019D,2026-03-21T00:06:30.480480,15.27577426,.00011288,43.0016,184.9613,285.0454,75.0273,0,U,58856,999,12081,.64440114E-4,.1511E-4,0
STARLINK-31226,2024-019F,2026-03-20T13:29:37.671648,15.27567031,.00015139,43.0023,187.6582,261.6790,98.3890,0,U,58858,999,12074,-.13670094E-3,-.402E-4,0
STARLINK-31197,2024-019G,2026-03-20T16:54:34.881696,15.27577475,.00016992,42.9996,187.0033,273.9035,86.1622,0,U,58859,999,12076,.35134381E-4,.705E-5,0
STARLINK-31213,2024-019H,2026-03-20T16:17:33.759744,15.27580102,.00015409,43.0068,186.8135,257.1201,102.9479,0,U,58860,999,12076,.6538403E-4,.1537E-4,0
STARLINK-31199,2024-019J,2026-03-21T00:02:49.427808,15.27565748,.00006722,43.0014,184.9409,50.1923,309.8988,0,U,58861,999,12081,-.30701836E-4,-.1106E-4,0
STARLINK-31200,2024-019K,2026-03-20T16:13:52.185216,15.27592192,.00013687,43.0007,186.7960,303.5052,56.5669,0,U,58862,999,12076,-.10102124E-3,-.3042E-4,0
STARLINK-31149,2024-019L,2026-03-20T23:25:49.626048,15.27560356,.00014653,43.0003,184.7438,268.5999,91.4685,0,U,58863,999,12081,-.23588482E-4,-.911E-5,0
STARLINK-31242,2024-019M,2026-03-20T16:23:07.916928,15.27562704,.000125,43.0021,186.8430,281.7045,78.3666,0,U,58864,999,12076,.11946194E-3,.3025E-4,0
STARLINK-31223,2024-019N,2026-03-20T16:25:01.023168,15.27561316,.00012885,43.0027,186.8611,276.7792,83.2913,0,U,58865,999,12074,-.21015647E-4,-.84E-5,0
STARLINK-31219,2024-019P,2026-03-20T23:40:35.998464,15.27568496,.00010275,43.0033,184.8227,276.1203,83.9531,0,U,58866,999,12079,.84867232E-4,.2073E-4,0
STARLINK-31198,2024-019Q,2026-03-20T23:53:32.953920,15.27580176,.00009253,43.0013,184.8743,281.0054,79.0694,0,U,58867,999,12079,.39700369E-4,.831E-5,0
STARLINK-31196,2024-019R,2026-03-20T17:00:07.589088,15.27593696,.00013912,43.0005,187.0300,269.0947,90.9746,0,U,58868,999,12074,-.57923935E-4,-.1856E-4,0
STARLINK-31203,2024-019S,2026-03-20T23:57:57.331872,15.27584343,.0000744,43.0016,181.4325,261.0988,98.9780,0,U,58869,999,12085,.77617674E-4,.1875E-4,0
