STARLINK-31249          
1 58838U 24017N   26079.91261896  .00000114  00000+0  15976-4 0  9999
2 58838  53.1621 152.2474 0001176  90.5413 269.5723 15.30192918121775
STARLINK-31250          
1 58839U 24017P   26079.87999295  .00001225  00000+0  53473-4 0  9994
2 58839  53.1604 142.1019 0001069  96.2557 263.8566 15.30191198121864
STARLINK-31248          
1 58840U 24017Q   26079.95421428 -.00000554  00000+0 -65655-5 0  9995
2 58840  53.1618 164.5577 0001829  97.5869 262.5340 15.30192057121717
STARLINK-31236          
1 58841U 24017R   26079.91894933  .00001267  00000+0  54913-4 0  9991
2 58841  53.1618 152.2891 0001205  90.2569 269.8570 15.30197246121772
STARLINK-31228          
1 58842U 24017S   26079.91578295  .00000618  00000+0  32999-4 0  9991
2 58842  53.1622 152.2693 0001268  89.5118 270.6028 15.30196907121779
STARLINK-31280          
1 58843U 24017T   26079.92210508 -.00003942  00000+0 -12098-3 0  9995
2 58843  53.1603 152.3088 0000913  92.7111 267.3995 15.30215754121771
STARLINK-31269          
1 58844U 24017U   26080.14939564 -.00000055  00000+0  10278-4 0  9992
2 58844  53.1595 241.2157 0001144  94.9436 265.1696 15.30196790120522
STARLINK-31264          
1 58845U 24017V   26079.70686028 -.00001418  00000+0 -35793-4 0  9991
2 58845  53.1581 242.7264 0000510  79.5949 280.5109 15.30179799120460
STARLINK-31273          
1 58846U 24017W   26079.92527576  .00004013  00000+0  14751-3 0  9990
2 58846  53.1608 152.3273 0001595  86.5357 273.5826 15.30207268121778
STARLINK-31262          
1 58847U 24017X   26080.17144678  .00005462  00000+0  19645-3 0  9994
2 58847  53.1595 240.6482 0001508  90.0921 270.0253 15.30192255120536
AAC-HSI-SAT3            
1 58848U 23174DH  26080.19558459  .00002232  00000+0  12185-3 0  9990
2 58848  97.3505 142.4843 0009490 320.8168  39.2377 15.15300369130570
2024-018A               
1 58849U 24018A   26080.23544440  .00001287  00000+0  16121-3 0  9992
2 58849  58.6873 177.9409 0433257   2.9303 357.4109 14.39054980112513
2024-018B               
1 58850U 24018B   26080.27749432  .00002690  00000+0  29611-3 0  9993
2 58850  58.6941 167.8487 0417554   5.5256 355.0170 14.43126068112708
2024-018C               
1 58851U 24018C   26080.29010794  .00001730  00000+0  20577-3 0  9994
2 58851  58.6839 172.0318 0426465   5.1473 355.3731 14.40542774112624
STARLINK-31238          
1 58853U 24019A   26079.99295381 -.00001462  00000+0 -43624-4 0  9992
2 58853  42.9995 184.8642 0001124 283.5571  76.5156 15.27586856120816
STARLINK-31158          
1 58854U 24019B   26079.99937234  .00000497  00000+0  27587-4 0  9998
2 58854  43.0028 184.9145 0001072 267.3338  92.7391 15.27583116120815
STARLINK-31237          
1 58855U 24019C   26079.98781200 -.00000385  00000+0 -44545-5 0  9990
2 58855  43.0002 184.8490 0000924 269.0412  91.0334 15.27584871120815
STARLINK-31244          
1 58856U 24019D   26080.00451945  .00001511  00000+0  64440-4 0  9991
2 58856  43.0016 184.9613 0001128 285.0454  75.0273 15.27577426120812
STARLINK-31226          
1 58858U 24019F   26079.56224157 -.00004020  00000+0 -13670-3 0  9993
2 58858  43.0023 187.6582 0001513 261.6790  98.3890 15.27567031120744
STARLINK-31197          
1 58859U 24019G   26079.70457039  .00000705  00000+0  35134-4 0  9991
2 58859  42.9996 187.0033 0001699 273.9035  86.1622 15.27577475120763
STARLINK-31213          
1 58860U 24019H   26079.67886296  .00001537  00000+0  65384-4 0  9994
2 58860  43.0068 186.8135 0001540 257.1201 102.9479 15.27580102120769
STARLINK-31199          
1 58861U 24019J   26080.00196097 -.00001106  00000+0 -30702-4 0  9997
2 58861  43.0014 184.9409 0000672  50.1923 309.8988 15.27565748120819
STARLINK-31200          
1 58862U 24019K   26079.67629844 -.00003042  00000+0 -10102-3 0  9992
2 58862  43.0007 186.7960 0001368 303.5052  56.5669 15.27592192120764
STARLINK-31149          
1 58863U 24019L   26079.97626882 -.00000911  00000+0 -23588-4 0  9990
2 58863  43.0003 184.7438 0001465 268.5999  91.4685 15.27560356120816
STARLINK-31242          
1 58864U 24019M   26079.68273052  .00003025  00000+0  11946-3 0  9997
2 58864  43.0021 186.8430 0001250 281.7045  78.3666 15.27562704120769
STARLINK-31223          
1 58865U 24019N   26079.68403962 -.00000840  00000+0 -21016-4 0  9997
2 58865  43.0027 186.8611 0001288 276.7792  83.2913 15.27561316120747
STARLINK-31219          
1 58866U 24019P   26079.98652776  .00002073  00000+0  84867-4 0  9991
2 58866  43.0033 184.8227 0001027 276.1203  83.9531 15.27568496120792
STARLINK-31198          
1 58867U 24019Q   26079.99552030  .00000831  00000+0  39700-4 0  9991
2 58867  43.0013 184.8743 0000925 281.0054  79.0694 15.27580176120794
STARLINK-31196          
1 58868U 24019R   26079.70842117 -.00001856  00000+0 -57924-4 0  9997
2 58868  43.0005 187.0300 0001391 269.0947  90.9746 15.27593696120741
STARLINK-31203          
1 58869U 24019S   26079.99858023  .00001875  00000+0  77618-4 0  9993
2 58869  43.0016 181.4325 0000744 261.0988  98.9780 15.27584343120854
